[{"OBJECT_NAME":"STARLINK-6188","OBJECT_ID":"2023-061C","EPOCH":"2026-03-09T22:00:01.999584","MEAN_MOTION":15.15577604,"ECCENTRICITY":0.0001913,"INCLINATION":42.9997,"RA_OF_ASC_NODE":195.6439,"ARG_OF_PERICENTER":287.7673,"MEAN_ANOMALY":148.4713,"EPHEMERIS_TYPE":0,"CLASSIFICATION_TYPE":"U","NORAD_CAT_ID":56376,"ELEMENT_SET_NO":999,"REV_AT_EPOCH":577,"BSTAR":0.061946458,"MEAN_MOTION_DOT":0.01297316,"MEAN_MOTION_DDOT":0},{"OBJECT_NAME":"SPACEMOBILE-005 DEB","OBJECT_ID":"2024-163K","EPOCH":"2026-03-09T07:33:15.902496","MEAN_MOTION":15.31481997,"ECCENTRICITY":0.00072885,"INCLINATION":52.9762,"RA_OF_ASC_NODE":31.7924,"ARG_OF_PERICENTER":175.8731,"MEAN_ANOMALY":184.2329,"EPHEMERIS_TYPE":0,"CLASSIFICATION_TYPE":"U","NORAD_CAT_ID":62373,"ELEMENT_SET_NO":999,"REV_AT_EPOCH":8280,"BSTAR":0.00063853778,"MEAN_MOTION_DOT":0.00019381,"MEAN_MOTION_DDOT":0}]
